KUIPER-00008            
1 63724U 25088A   25344.77761808 -.00013796  00000+0 -10914-2 0  9991
2 63724  51.8882 132.2006 0010127 163.4165 196.7139 14.99488451 34722
KUIPER-00009            
1 63725U 25088B   25344.71095139  .00001766  00000+0  26060-3 0  9995
2 63725  51.9022 140.0796 0012925 154.8207 205.3388 14.79941158 34608
KUIPER-00010            
1 63726U 25088C   25344.76234218  .00003467  00000+0  47835-3 0  9997
2 63726  51.9006 116.2305 0011928 202.5192 157.5249 14.80380320 34567
KUIPER-00011            
1 63727U 25088D   25344.66137854 -.00000147  00000+0  10302-4 0  9998
2 63727  51.8981 124.3375 0015358 167.1373 192.9984 14.79918117 34573
KUIPER-00012            
1 63728U 25088E   25344.76099081  .00000684  00000+0  12736-3 0  9996
2 63728  51.9015 107.2352 0008519 184.0233 176.0661 14.76742796 34774
KUIPER-00013            
1 63729U 25088F   25344.71003006  .00001507  00000+0  22676-3 0  9993
2 63729  51.9005 141.5523 0008695  90.2684 269.9275 14.79942399 34393
KUIPER-00014            
1 63730U 25088G   25344.70833458  .00001593  00000+0  23794-3 0  9993
2 63730  51.9013 142.5293 0009968 150.1742 209.9790 14.79954524 34191
KUIPER-00015            
1 63731U 25088H   25344.75097757  .00002945  00000+0  39599-3 0  9995
2 63731  51.8982 153.3543 0011060 140.3525 219.8248 14.81960618 34507
